VNU-LEO-0101
1 60001U 00001A   26130.17700231  .00000000  00000-0  00000-0 0  9991
2 60001  53.0000   0.0000 0000000   0.0000   0.0000 15.24308387    08
VNU-LEO-0102
1 60002U 00001A   26130.17700231  .00000000  00000-0  00000-0 0  9992
2 60002  53.0000   0.0000 0000000   0.0000  22.5000 15.24308387    08
VNU-LEO-0103
1 60003U 00001A   26130.17700231  .00000000  00000-0  00000-0 0  9993
2 60003  53.0000   0.0000 0000000   0.0000  45.0000 15.24308387    09
VNU-LEO-0104
1 60004U 00001A   26130.17700231  .00000000  00000-0  00000-0 0  9994
2 60004  53.0000   0.0000 0000000   0.0000  67.5000 15.24308387    09
VNU-LEO-0105
1 60005U 00001A   26130.17700231  .00000000  00000-0  00000-0 0  9995
2 60005  53.0000   0.0000 0000000   0.0000  90.0000 15.24308387    01
VNU-LEO-0106
1 60006U 00001A   26130.17700231  .00000000  00000-0  00000-0 0  9996
2 60006  53.0000   0.0000 0000000   0.0000 112.5000 15.24308387    02
VNU-LEO-0107
1 60007U 00001A   26130.17700231  .00000000  00000-0  00000-0 0  9997
2 60007  53.0000   0.0000 0000000   0.0000 135.0000 15.24308387    03
VNU-LEO-0108
1 60008U 00001A   26130.17700231  .00000000  00000-0  00000-0 0  9998
2 60008  53.0000   0.0000 0000000   0.0000 157.5000 15.24308387    03
VNU-LEO-0109
1 60009U 00001A   26130.17700231  .00000000  00000-0  00000-0 0  9999
2 60009  53.0000   0.0000 0000000   0.0000 180.0000 15.24308387    05
VNU-LEO-0110
1 60010U 00001A   26130.17700231  .00000000  00000-0  00000-0 0  9991
2 60010  53.0000   0.0000 0000000   0.0000 202.5000 15.24308387    07
VNU-LEO-0111
1 60011U 00001A   26130.17700231  .00000000  00000-0  00000-0 0  9992
2 60011  53.0000   0.0000 0000000   0.0000 225.0000 15.24308387    08
VNU-LEO-0112
1 60012U 00001A   26130.17700231  .00000000  00000-0  00000-0 0  9993
2 60012  53.0000   0.0000 0000000   0.0000 247.5000 15.24308387    08
VNU-LEO-0113
1 60013U 00001A   26130.17700231  .00000000  00000-0  00000-0 0  9994
2 60013  53.0000   0.0000 0000000   0.0000 270.0000 15.24308387    00
VNU-LEO-0114
1 60014U 00001A   26130.17700231  .00000000  00000-0  00000-0 0  9995
2 60014  53.0000   0.0000 0000000   0.0000 292.5000 15.24308387    00
VNU-LEO-0115
1 60015U 00001A   26130.17700231  .00000000  00000-0  00000-0 0  9996
2 60015  53.0000   0.0000 0000000   0.0000 315.0000 15.24308387    02
VNU-LEO-0116
1 60016U 00001A   26130.17700231  .00000000  00000-0  00000-0 0  9997
2 60016  53.0000   0.0000 0000000   0.0000 337.5000 15.24308387    02
VNU-LEO-0201
1 60017U 00001A   26130.17700231  .00000000  00000-0  00000-0 0  9998
2 60017  53.0000  22.5000 0000000   0.0000   2.8125 15.24308387    02
VNU-LEO-0202
1 60018U 00001A   26130.17700231  .00000000  00000-0  00000-0 0  9999
2 60018  53.0000  22.5000 0000000   0.0000  25.3125 15.24308387    03
VNU-LEO-0203
1 60019U 00001A   26130.17700231  .00000000  00000-0  00000-0 0  9990
2 60019  53.0000  22.5000 0000000   0.0000  47.8125 15.24308387    03
VNU-LEO-0204
1 60020U 00001A   26130.17700231  .00000000  00000-0  00000-0 0  9992
2 60020  53.0000  22.5000 0000000   0.0000  70.3125 15.24308387    06
VNU-LEO-0205
1 60021U 00001A   26130.17700231  .00000000  00000-0  00000-0 0  9993
2 60021  53.0000  22.5000 0000000   0.0000  92.8125 15.24308387    06
VNU-LEO-0206
1 60022U 00001A   26130.17700231  .00000000  00000-0  00000-0 0  9994
2 60022  53.0000  22.5000 0000000   0.0000 115.3125 15.24308387    08
VNU-LEO-0207
1 60023U 00001A   26130.17700231  .00000000  00000-0  00000-0 0  9995
2 60023  53.0000  22.5000 0000000   0.0000 137.8125 15.24308387    08
VNU-LEO-0208
1 60024U 00001A   26130.17700231  .00000000  00000-0  00000-0 0  9996
2 60024  53.0000  22.5000 0000000   0.0000 160.3125 15.24308387    00
VNU-LEO-0209
1 60025U 00001A   26130.17700231  .00000000  00000-0  00000-0 0  9997
2 60025  53.0000  22.5000 0000000   0.0000 182.8125 15.24308387    00
VNU-LEO-0210
1 60026U 00001A   26130.17700231  .00000000  00000-0  00000-0 0  9998
2 60026  53.0000  22.5000 0000000   0.0000 205.3125 15.24308387    02
VNU-LEO-0211
1 60027U 00001A   26130.17700231  .00000000  00000-0  00000-0 0  9999
2 60027  53.0000  22.5000 0000000   0.0000 227.8125 15.24308387    02
VNU-LEO-0212
1 60028U 00001A   26130.17700231  .00000000  00000-0  00000-0 0  9990
2 60028  53.0000  22.5000 0000000   0.0000 250.3125 15.24308387    04
VNU-LEO-0213
1 60029U 00001A   26130.17700231  .00000000  00000-0  00000-0 0  9991
2 60029  53.0000  22.5000 0000000   0.0000 272.8125 15.24308387    04
VNU-LEO-0214
1 60030U 00001A   26130.17700231  .00000000  00000-0  00000-0 0  9993
2 60030  53.0000  22.5000 0000000   0.0000 295.3125 15.24308387    06
VNU-LEO-0215
1 60031U 00001A   26130.17700231  .00000000  00000-0  00000-0 0  9994
2 60031  53.0000  22.5000 0000000   0.0000 317.8125 15.24308387    07
VNU-LEO-0216
1 60032U 00001A   26130.17700231  .00000000  00000-0  00000-0 0  9995
2 60032  53.0000  22.5000 0000000   0.0000 340.3125 15.24308387    09
VNU-LEO-0301
1 60033U 00001A   26130.17700231  .00000000  00000-0  00000-0 0  9996
2 60033  53.0000  45.0000 0000000   0.0000   5.6250 15.24308387    00
VNU-LEO-0302
1 60034U 00001A   26130.17700231  .00000000  00000-0  00000-0 0  9997
2 60034  53.0000  45.0000 0000000   0.0000  28.1250 15.24308387    01
VNU-LEO-0303
1 60035U 00001A   26130.17700231  .00000000  00000-0  00000-0 0  9998
2 60035  53.0000  45.0000 0000000   0.0000  50.6250 15.24308387    02
VNU-LEO-0304
1 60036U 00001A   26130.17700231  .00000000  00000-0  00000-0 0  9999
2 60036  53.0000  45.0000 0000000   0.0000  73.1250 15.24308387    03
VNU-LEO-0305
1 60037U 00001A   26130.17700231  .00000000  00000-0  00000-0 0  9990
2 60037  53.0000  45.0000 0000000   0.0000  95.6250 15.24308387    03
VNU-LEO-0306
1 60038U 00001A   26130.17700231  .00000000  00000-0  00000-0 0  9991
2 60038  53.0000  45.0000 0000000   0.0000 118.1250 15.24308387    05
VNU-LEO-0307
1 60039U 00001A   26130.17700231  .00000000  00000-0  00000-0 0  9992
2 60039  53.0000  45.0000 0000000   0.0000 140.6250 15.24308387    06
VNU-LEO-0308
1 60040U 00001A   26130.17700231  .00000000  00000-0  00000-0 0  9994
2 60040  53.0000  45.0000 0000000   0.0000 163.1250 15.24308387    08
VNU-LEO-0309
1 60041U 00001A   26130.17700231  .00000000  00000-0  00000-0 0  9995
2 60041  53.0000  45.0000 0000000   0.0000 185.6250 15.24308387    08
VNU-LEO-0310
1 60042U 00001A   26130.17700231  .00000000  00000-0  00000-0 0  9996
2 60042  53.0000  45.0000 0000000   0.0000 208.1250 15.24308387    00
VNU-LEO-0311
1 60043U 00001A   26130.17700231  .00000000  00000-0  00000-0 0  9997
2 60043  53.0000  45.0000 0000000   0.0000 230.6250 15.24308387    01
VNU-LEO-0312
1 60044U 00001A   26130.17700231  .00000000  00000-0  00000-0 0  9998
2 60044  53.0000  45.0000 0000000   0.0000 253.1250 15.24308387    02
VNU-LEO-0313
1 60045U 00001A   26130.17700231  .00000000  00000-0  00000-0 0  9999
2 60045  53.0000  45.0000 0000000   0.0000 275.6250 15.24308387    02
VNU-LEO-0314
1 60046U 00001A   26130.17700231  .00000000  00000-0  00000-0 0  9990
2 60046  53.0000  45.0000 0000000   0.0000 298.1250 15.24308387    03
VNU-LEO-0315
1 60047U 00001A   26130.17700231  .00000000  00000-0  00000-0 0  9991
2 60047  53.0000  45.0000 0000000   0.0000 320.6250 15.24308387    05
VNU-LEO-0316
1 60048U 00001A   26130.17700231  .00000000  00000-0  00000-0 0  9992
2 60048  53.0000  45.0000 0000000   0.0000 343.1250 15.24308387    06
VNU-LEO-0401
1 60049U 00001A   26130.17700231  .00000000  00000-0  00000-0 0  9993
2 60049  53.0000  67.5000 0000000   0.0000   8.4375 15.24308387    05
VNU-LEO-0402
1 60050U 00001A   26130.17700231  .00000000  00000-0  00000-0 0  9995
2 60050  53.0000  67.5000 0000000   0.0000  30.9375 15.24308387    07
VNU-LEO-0403
1 60051U 00001A   26130.17700231  .00000000  00000-0  00000-0 0  9996
2 60051  53.0000  67.5000 0000000   0.0000  53.4375 15.24308387    08
VNU-LEO-0404
1 60052U 00001A   26130.17700231  .00000000  00000-0  00000-0 0  9997
2 60052  53.0000  67.5000 0000000   0.0000  75.9375 15.24308387    08
VNU-LEO-0405
1 60053U 00001A   26130.17700231  .00000000  00000-0  00000-0 0  9998
2 60053  53.0000  67.5000 0000000   0.0000  98.4375 15.24308387    09
VNU-LEO-0406
1 60054U 00001A   26130.17700231  .00000000  00000-0  00000-0 0  9999
2 60054  53.0000  67.5000 0000000   0.0000 120.9375 15.24308387    01
VNU-LEO-0407
1 60055U 00001A   26130.17700231  .00000000  00000-0  00000-0 0  9990
2 60055  53.0000  67.5000 0000000   0.0000 143.4375 15.24308387    02
VNU-LEO-0408
1 60056U 00001A   26130.17700231  .00000000  00000-0  00000-0 0  9991
2 60056  53.0000  67.5000 0000000   0.0000 165.9375 15.24308387    02
VNU-LEO-0409
1 60057U 00001A   26130.17700231  .00000000  00000-0  00000-0 0  9992
2 60057  53.0000  67.5000 0000000   0.0000 188.4375 15.24308387    03
VNU-LEO-0410
1 60058U 00001A   26130.17700231  .00000000  00000-0  00000-0 0  9993
2 60058  53.0000  67.5000 0000000   0.0000 210.9375 15.24308387    05
VNU-LEO-0411
1 60059U 00001A   26130.17700231  .00000000  00000-0  00000-0 0  9994
2 60059  53.0000  67.5000 0000000   0.0000 233.4375 15.24308387    06
VNU-LEO-0412
1 60060U 00001A   26130.17700231  .00000000  00000-0  00000-0 0  9996
2 60060  53.0000  67.5000 0000000   0.0000 255.9375 15.24308387    07
VNU-LEO-0413
1 60061U 00001A   26130.17700231  .00000000  00000-0  00000-0 0  9997
2 60061  53.0000  67.5000 0000000   0.0000 278.4375 15.24308387    08
VNU-LEO-0414
1 60062U 00001A   26130.17700231  .00000000  00000-0  00000-0 0  9998
2 60062  53.0000  67.5000 0000000   0.0000 300.9375 15.24308387    00
VNU-LEO-0415
1 60063U 00001A   26130.17700231  .00000000  00000-0  00000-0 0  9999
2 60063  53.0000  67.5000 0000000   0.0000 323.4375 15.24308387    01
VNU-LEO-0416
1 60064U 00001A   26130.17700231  .00000000  00000-0  00000-0 0  9990
2 60064  53.0000  67.5000 0000000   0.0000 345.9375 15.24308387    01
VNU-LEO-0501
1 60065U 00001A   26130.17700231  .00000000  00000-0  00000-0 0  9991
2 60065  53.0000  90.0000 0000000   0.0000  11.2500 15.24308387    06
VNU-LEO-0502
1 60066U 00001A   26130.17700231  .00000000  00000-0  00000-0 0  9992
2 60066  53.0000  90.0000 0000000   0.0000  33.7500 15.24308387    06
VNU-LEO-0503
1 60067U 00001A   26130.17700231  .00000000  00000-0  00000-0 0  9993
2 60067  53.0000  90.0000 0000000   0.0000  56.2500 15.24308387    07
VNU-LEO-0504
1 60068U 00001A   26130.17700231  .00000000  00000-0  00000-0 0  9994
2 60068  53.0000  90.0000 0000000   0.0000  78.7500 15.24308387    07
VNU-LEO-0505
1 60069U 00001A   26130.17700231  .00000000  00000-0  00000-0 0  9995
2 60069  53.0000  90.0000 0000000   0.0000 101.2500 15.24308387    00
VNU-LEO-0506
1 60070U 00001A   26130.17700231  .00000000  00000-0  00000-0 0  9997
2 60070  53.0000  90.0000 0000000   0.0000 123.7500 15.24308387    01
VNU-LEO-0507
1 60071U 00001A   26130.17700231  .00000000  00000-0  00000-0 0  9998
2 60071  53.0000  90.0000 0000000   0.0000 146.2500 15.24308387    02
VNU-LEO-0508
1 60072U 00001A   26130.17700231  .00000000  00000-0  00000-0 0  9999
2 60072  53.0000  90.0000 0000000   0.0000 168.7500 15.24308387    02
VNU-LEO-0509
1 60073U 00001A   26130.17700231  .00000000  00000-0  00000-0 0  9990
2 60073  53.0000  90.0000 0000000   0.0000 191.2500 15.24308387    04
VNU-LEO-0510
1 60074U 00001A   26130.17700231  .00000000  00000-0  00000-0 0  9991
2 60074  53.0000  90.0000 0000000   0.0000 213.7500 15.24308387    05
VNU-LEO-0511
1 60075U 00001A   26130.17700231  .00000000  00000-0  00000-0 0  9992
2 60075  53.0000  90.0000 0000000   0.0000 236.2500 15.24308387    06
VNU-LEO-0512
1 60076U 00001A   26130.17700231  .00000000  00000-0  00000-0 0  9993
2 60076  53.0000  90.0000 0000000   0.0000 258.7500 15.24308387    06
VNU-LEO-0513
1 60077U 00001A   26130.17700231  .00000000  00000-0  00000-0 0  9994
2 60077  53.0000  90.0000 0000000   0.0000 281.2500 15.24308387    08
VNU-LEO-0514
1 60078U 00001A   26130.17700231  .00000000  00000-0  00000-0 0  9995
2 60078  53.0000  90.0000 0000000   0.0000 303.7500 15.24308387    09
VNU-LEO-0515
1 60079U 00001A   26130.17700231  .00000000  00000-0  00000-0 0  9996
2 60079  53.0000  90.0000 0000000   0.0000 326.2500 15.24308387    00
VNU-LEO-0516
1 60080U 00001A   26130.17700231  .00000000  00000-0  00000-0 0  9998
2 60080  53.0000  90.0000 0000000   0.0000 348.7500 15.24308387    01
VNU-LEO-0601
1 60081U 00001A   26130.17700231  .00000000  00000-0  00000-0 0  9999
2 60081  53.0000 112.5000 0000000   0.0000  14.0625 15.24308387    03
VNU-LEO-0602
1 60082U 00001A   26130.17700231  .00000000  00000-0  00000-0 0  9990
2 60082  53.0000 112.5000 0000000   0.0000  36.5625 15.24308387    03
VNU-LEO-0603
1 60083U 00001A   26130.17700231  .00000000  00000-0  00000-0 0  9991
2 60083  53.0000 112.5000 0000000   0.0000  59.0625 15.24308387    04
VNU-LEO-0604
1 60084U 00001A   26130.17700231  .00000000  00000-0  00000-0 0  9992
2 60084  53.0000 112.5000 0000000   0.0000  81.5625 15.24308387    05
VNU-LEO-0605
1 60085U 00001A   26130.17700231  .00000000  00000-0  00000-0 0  9993
2 60085  53.0000 112.5000 0000000   0.0000 104.0625 15.24308387    07
VNU-LEO-0606
1 60086U 00001A   26130.17700231  .00000000  00000-0  00000-0 0  9994
2 60086  53.0000 112.5000 0000000   0.0000 126.5625 15.24308387    07
VNU-LEO-0607
1 60087U 00001A   26130.17700231  .00000000  00000-0  00000-0 0  9995
2 60087  53.0000 112.5000 0000000   0.0000 149.0625 15.24308387    08
VNU-LEO-0608
1 60088U 00001A   26130.17700231  .00000000  00000-0  00000-0 0  9996
2 60088  53.0000 112.5000 0000000   0.0000 171.5625 15.24308387    09
VNU-LEO-0609
1 60089U 00001A   26130.17700231  .00000000  00000-0  00000-0 0  9997
2 60089  53.0000 112.5000 0000000   0.0000 194.0625 15.24308387    00
VNU-LEO-0610
1 60090U 00001A   26130.17700231  .00000000  00000-0  00000-0 0  9999
2 60090  53.0000 112.5000 0000000   0.0000 216.5625 15.24308387    02
VNU-LEO-0611
1 60091U 00001A   26130.17700231  .00000000  00000-0  00000-0 0  9990
2 60091  53.0000 112.5000 0000000   0.0000 239.0625 15.24308387    03
VNU-LEO-0612
1 60092U 00001A   26130.17700231  .00000000  00000-0  00000-0 0  9991
2 60092  53.0000 112.5000 0000000   0.0000 261.5625 15.24308387    04
VNU-LEO-0613
1 60093U 00001A   26130.17700231  .00000000  00000-0  00000-0 0  9992
2 60093  53.0000 112.5000 0000000   0.0000 284.0625 15.24308387    05
VNU-LEO-0614
1 60094U 00001A   26130.17700231  .00000000  00000-0  00000-0 0  9993
2 60094  53.0000 112.5000 0000000   0.0000 306.5625 15.24308387    06
VNU-LEO-0615
1 60095U 00001A   26130.17700231  .00000000  00000-0  00000-0 0  9994
2 60095  53.0000 112.5000 0000000   0.0000 329.0625 15.24308387    07
VNU-LEO-0616
1 60096U 00001A   26130.17700231  .00000000  00000-0  00000-0 0  9995
2 60096  53.0000 112.5000 0000000   0.0000 351.5625 15.24308387    08
VNU-LEO-0701
1 60097U 00001A   26130.17700231  .00000000  00000-0  00000-0 0  9996
2 60097  53.0000 135.0000 0000000   0.0000  16.8750 15.24308387    09
VNU-LEO-0702
1 60098U 00001A   26130.17700231  .00000000  00000-0  00000-0 0  9997
2 60098  53.0000 135.0000 0000000   0.0000  39.3750 15.24308387    00
VNU-LEO-0703
1 60099U 00001A   26130.17700231  .00000000  00000-0  00000-0 0  9998
2 60099  53.0000 135.0000 0000000   0.0000  61.8750 15.24308387    01
VNU-LEO-0704
1 60100U 00001A   26130.17700231  .00000000  00000-0  00000-0 0  9991
2 60100  53.0000 135.0000 0000000   0.0000  84.3750 15.24308387    04
VNU-LEO-0705
1 60101U 00001A   26130.17700231  .00000000  00000-0  00000-0 0  9992
2 60101  53.0000 135.0000 0000000   0.0000 106.8750 15.24308387    05
VNU-LEO-0706
1 60102U 00001A   26130.17700231  .00000000  00000-0  00000-0 0  9993
2 60102  53.0000 135.0000 0000000   0.0000 129.3750 15.24308387    06
VNU-LEO-0707
1 60103U 00001A   26130.17700231  .00000000  00000-0  00000-0 0  9994
2 60103  53.0000 135.0000 0000000   0.0000 151.8750 15.24308387    07
VNU-LEO-0708
1 60104U 00001A   26130.17700231  .00000000  00000-0  00000-0 0  9995
2 60104  53.0000 135.0000 0000000   0.0000 174.3750 15.24308387    08
VNU-LEO-0709
1 60105U 00001A   26130.17700231  .00000000  00000-0  00000-0 0  9996
2 60105  53.0000 135.0000 0000000   0.0000 196.8750 15.24308387    08
VNU-LEO-0710
1 60106U 00001A   26130.17700231  .00000000  00000-0  00000-0 0  9997
2 60106  53.0000 135.0000 0000000   0.0000 219.3750 15.24308387    00
VNU-LEO-0711
1 60107U 00001A   26130.17700231  .00000000  00000-0  00000-0 0  9998
2 60107  53.0000 135.0000 0000000   0.0000 241.8750 15.24308387    01
VNU-LEO-0712
1 60108U 00001A   26130.17700231  .00000000  00000-0  00000-0 0  9999
2 60108  53.0000 135.0000 0000000   0.0000 264.3750 15.24308387    02
VNU-LEO-0713
1 60109U 00001A   26130.17700231  .00000000  00000-0  00000-0 0  9990
2 60109  53.0000 135.0000 0000000   0.0000 286.8750 15.24308387    02
VNU-LEO-0714
1 60110U 00001A   26130.17700231  .00000000  00000-0  00000-0 0  9992
2 60110  53.0000 135.0000 0000000   0.0000 309.3750 15.24308387    05
VNU-LEO-0715
1 60111U 00001A   26130.17700231  .00000000  00000-0  00000-0 0  9993
2 60111  53.0000 135.0000 0000000   0.0000 331.8750 15.24308387    06
VNU-LEO-0716
1 60112U 00001A   26130.17700231  .00000000  00000-0  00000-0 0  9994
2 60112  53.0000 135.0000 0000000   0.0000 354.3750 15.24308387    07
VNU-LEO-0801
1 60113U 00001A   26130.17700231  .00000000  00000-0  00000-0 0  9995
2 60113  53.0000 157.5000 0000000   0.0000  19.6875 15.24308387    06
VNU-LEO-0802
1 60114U 00001A   26130.17700231  .00000000  00000-0  00000-0 0  9996
2 60114  53.0000 157.5000 0000000   0.0000  42.1875 15.24308387    08
VNU-LEO-0803
1 60115U 00001A   26130.17700231  .00000000  00000-0  00000-0 0  9997
2 60115  53.0000 157.5000 0000000   0.0000  64.6875 15.24308387    08
VNU-LEO-0804
1 60116U 00001A   26130.17700231  .00000000  00000-0  00000-0 0  9998
2 60116  53.0000 157.5000 0000000   0.0000  87.1875 15.24308387    09
VNU-LEO-0805
1 60117U 00001A   26130.17700231  .00000000  00000-0  00000-0 0  9999
2 60117  53.0000 157.5000 0000000   0.0000 109.6875 15.24308387    00
VNU-LEO-0806
1 60118U 00001A   26130.17700231  .00000000  00000-0  00000-0 0  9990
2 60118  53.0000 157.5000 0000000   0.0000 132.1875 15.24308387    02
VNU-LEO-0807
1 60119U 00001A   26130.17700231  .00000000  00000-0  00000-0 0  9991
2 60119  53.0000 157.5000 0000000   0.0000 154.6875 15.24308387    02
VNU-LEO-0808
1 60120U 00001A   26130.17700231  .00000000  00000-0  00000-0 0  9993
2 60120  53.0000 157.5000 0000000   0.0000 177.1875 15.24308387    04
VNU-LEO-0809
1 60121U 00001A   26130.17700231  .00000000  00000-0  00000-0 0  9994
2 60121  53.0000 157.5000 0000000   0.0000 199.6875 15.24308387    04
VNU-LEO-0810
1 60122U 00001A   26130.17700231  .00000000  00000-0  00000-0 0  9995
2 60122  53.0000 157.5000 0000000   0.0000 222.1875 15.24308387    07
VNU-LEO-0811
1 60123U 00001A   26130.17700231  .00000000  00000-0  00000-0 0  9996
2 60123  53.0000 157.5000 0000000   0.0000 244.6875 15.24308387    07
VNU-LEO-0812
1 60124U 00001A   26130.17700231  .00000000  00000-0  00000-0 0  9997
2 60124  53.0000 157.5000 0000000   0.0000 267.1875 15.24308387    08
VNU-LEO-0813
1 60125U 00001A   26130.17700231  .00000000  00000-0  00000-0 0  9998
2 60125  53.0000 157.5000 0000000   0.0000 289.6875 15.24308387    08
VNU-LEO-0814
1 60126U 00001A   26130.17700231  .00000000  00000-0  00000-0 0  9999
2 60126  53.0000 157.5000 0000000   0.0000 312.1875 15.24308387    01
VNU-LEO-0815
1 60127U 00001A   26130.17700231  .00000000  00000-0  00000-0 0  9990
2 60127  53.0000 157.5000 0000000   0.0000 334.6875 15.24308387    01
VNU-LEO-0816
1 60128U 00001A   26130.17700231  .00000000  00000-0  00000-0 0  9991
2 60128  53.0000 157.5000 0000000   0.0000 357.1875 15.24308387    02
VNU-LEO-0901
1 60129U 00001A   26130.17700231  .00000000  00000-0  00000-0 0  9992
2 60129  53.0000 180.0000 0000000   0.0000  22.5000 15.24308387    07
VNU-LEO-0902
1 60130U 00001A   26130.17700231  .00000000  00000-0  00000-0 0  9994
2 60130  53.0000 180.0000 0000000   0.0000  45.0000 15.24308387    09
VNU-LEO-0903
1 60131U 00001A   26130.17700231  .00000000  00000-0  00000-0 0  9995
2 60131  53.0000 180.0000 0000000   0.0000  67.5000 15.24308387    09
VNU-LEO-0904
1 60132U 00001A   26130.17700231  .00000000  00000-0  00000-0 0  9996
2 60132  53.0000 180.0000 0000000   0.0000  90.0000 15.24308387    01
VNU-LEO-0905
1 60133U 00001A   26130.17700231  .00000000  00000-0  00000-0 0  9997
2 60133  53.0000 180.0000 0000000   0.0000 112.5000 15.24308387    02
VNU-LEO-0906
1 60134U 00001A   26130.17700231  .00000000  00000-0  00000-0 0  9998
2 60134  53.0000 180.0000 0000000   0.0000 135.0000 15.24308387    03
VNU-LEO-0907
1 60135U 00001A   26130.17700231  .00000000  00000-0  00000-0 0  9999
2 60135  53.0000 180.0000 0000000   0.0000 157.5000 15.24308387    03
VNU-LEO-0908
1 60136U 00001A   26130.17700231  .00000000  00000-0  00000-0 0  9990
2 60136  53.0000 180.0000 0000000   0.0000 180.0000 15.24308387    05
VNU-LEO-0909
1 60137U 00001A   26130.17700231  .00000000  00000-0  00000-0 0  9991
2 60137  53.0000 180.0000 0000000   0.0000 202.5000 15.24308387    06
VNU-LEO-0910
1 60138U 00001A   26130.17700231  .00000000  00000-0  00000-0 0  9992
2 60138  53.0000 180.0000 0000000   0.0000 225.0000 15.24308387    07
VNU-LEO-0911
1 60139U 00001A   26130.17700231  .00000000  00000-0  00000-0 0  9993
2 60139  53.0000 180.0000 0000000   0.0000 247.5000 15.24308387    07
VNU-LEO-0912
1 60140U 00001A   26130.17700231  .00000000  00000-0  00000-0 0  9995
2 60140  53.0000 180.0000 0000000   0.0000 270.0000 15.24308387    00
VNU-LEO-0913
1 60141U 00001A   26130.17700231  .00000000  00000-0  00000-0 0  9996
2 60141  53.0000 180.0000 0000000   0.0000 292.5000 15.24308387    00
VNU-LEO-0914
1 60142U 00001A   26130.17700231  .00000000  00000-0  00000-0 0  9997
2 60142  53.0000 180.0000 0000000   0.0000 315.0000 15.24308387    02
VNU-LEO-0915
1 60143U 00001A   26130.17700231  .00000000  00000-0  00000-0 0  9998
2 60143  53.0000 180.0000 0000000   0.0000 337.5000 15.24308387    02
VNU-LEO-0916
1 60144U 00001A   26130.17700231  .00000000  00000-0  00000-0 0  9999
2 60144  53.0000 180.0000 0000000   0.0000   0.0000 15.24308387    05
VNU-LEO-1001
1 60145U 00001A   26130.17700231  .00000000  00000-0  00000-0 0  9990
2 60145  53.0000 202.5000 0000000   0.0000  25.3125 15.24308387    04
VNU-LEO-1002
1 60146U 00001A   26130.17700231  .00000000  00000-0  00000-0 0  9991
2 60146  53.0000 202.5000 0000000   0.0000  47.8125 15.24308387    04
VNU-LEO-1003
1 60147U 00001A   26130.17700231  .00000000  00000-0  00000-0 0  9992
2 60147  53.0000 202.5000 0000000   0.0000  70.3125 15.24308387    06
VNU-LEO-1004
1 60148U 00001A   26130.17700231  .00000000  00000-0  00000-0 0  9993
2 60148  53.0000 202.5000 0000000   0.0000  92.8125 15.24308387    06
VNU-LEO-1005
1 60149U 00001A   26130.17700231  .00000000  00000-0  00000-0 0  9994
2 60149  53.0000 202.5000 0000000   0.0000 115.3125 15.24308387    08
VNU-LEO-1006
1 60150U 00001A   26130.17700231  .00000000  00000-0  00000-0 0  9996
2 60150  53.0000 202.5000 0000000   0.0000 137.8125 15.24308387    09
VNU-LEO-1007
1 60151U 00001A   26130.17700231  .00000000  00000-0  00000-0 0  9997
2 60151  53.0000 202.5000 0000000   0.0000 160.3125 15.24308387    01
VNU-LEO-1008
1 60152U 00001A   26130.17700231  .00000000  00000-0  00000-0 0  9998
2 60152  53.0000 202.5000 0000000   0.0000 182.8125 15.24308387    01
VNU-LEO-1009
1 60153U 00001A   26130.17700231  .00000000  00000-0  00000-0 0  9999
2 60153  53.0000 202.5000 0000000   0.0000 205.3125 15.24308387    03
VNU-LEO-1010
1 60154U 00001A   26130.17700231  .00000000  00000-0  00000-0 0  9990
2 60154  53.0000 202.5000 0000000   0.0000 227.8125 15.24308387    03
VNU-LEO-1011
1 60155U 00001A   26130.17700231  .00000000  00000-0  00000-0 0  9991
2 60155  53.0000 202.5000 0000000   0.0000 250.3125 15.24308387    05
VNU-LEO-1012
1 60156U 00001A   26130.17700231  .00000000  00000-0  00000-0 0  9992
2 60156  53.0000 202.5000 0000000   0.0000 272.8125 15.24308387    05
VNU-LEO-1013
1 60157U 00001A   26130.17700231  .00000000  00000-0  00000-0 0  9993
2 60157  53.0000 202.5000 0000000   0.0000 295.3125 15.24308387    06
VNU-LEO-1014
1 60158U 00001A   26130.17700231  .00000000  00000-0  00000-0 0  9994
2 60158  53.0000 202.5000 0000000   0.0000 317.8125 15.24308387    07
VNU-LEO-1015
1 60159U 00001A   26130.17700231  .00000000  00000-0  00000-0 0  9995
2 60159  53.0000 202.5000 0000000   0.0000 340.3125 15.24308387    09
VNU-LEO-1016
1 60160U 00001A   26130.17700231  .00000000  00000-0  00000-0 0  9997
2 60160  53.0000 202.5000 0000000   0.0000   2.8125 15.24308387    01
VNU-LEO-1101
1 60161U 00001A   26130.17700231  .00000000  00000-0  00000-0 0  9998
2 60161  53.0000 225.0000 0000000   0.0000  28.1250 15.24308387    02
VNU-LEO-1102
1 60162U 00001A   26130.17700231  .00000000  00000-0  00000-0 0  9999
2 60162  53.0000 225.0000 0000000   0.0000  50.6250 15.24308387    03
VNU-LEO-1103
1 60163U 00001A   26130.17700231  .00000000  00000-0  00000-0 0  9990
2 60163  53.0000 225.0000 0000000   0.0000  73.1250 15.24308387    04
VNU-LEO-1104
1 60164U 00001A   26130.17700231  .00000000  00000-0  00000-0 0  9991
2 60164  53.0000 225.0000 0000000   0.0000  95.6250 15.24308387    04
VNU-LEO-1105
1 60165U 00001A   26130.17700231  .00000000  00000-0  00000-0 0  9992
2 60165  53.0000 225.0000 0000000   0.0000 118.1250 15.24308387    06
VNU-LEO-1106
1 60166U 00001A   26130.17700231  .00000000  00000-0  00000-0 0  9993
2 60166  53.0000 225.0000 0000000   0.0000 140.6250 15.24308387    07
VNU-LEO-1107
1 60167U 00001A   26130.17700231  .00000000  00000-0  00000-0 0  9994
2 60167  53.0000 225.0000 0000000   0.0000 163.1250 15.24308387    08
VNU-LEO-1108
1 60168U 00001A   26130.17700231  .00000000  00000-0  00000-0 0  9995
2 60168  53.0000 225.0000 0000000   0.0000 185.6250 15.24308387    08
VNU-LEO-1109
1 60169U 00001A   26130.17700231  .00000000  00000-0  00000-0 0  9996
2 60169  53.0000 225.0000 0000000   0.0000 208.1250 15.24308387    00
VNU-LEO-1110
1 60170U 00001A   26130.17700231  .00000000  00000-0  00000-0 0  9998
2 60170  53.0000 225.0000 0000000   0.0000 230.6250 15.24308387    02
VNU-LEO-1111
1 60171U 00001A   26130.17700231  .00000000  00000-0  00000-0 0  9999
2 60171  53.0000 225.0000 0000000   0.0000 253.1250 15.24308387    03
VNU-LEO-1112
1 60172U 00001A   26130.17700231  .00000000  00000-0  00000-0 0  9990
2 60172  53.0000 225.0000 0000000   0.0000 275.6250 15.24308387    03
VNU-LEO-1113
1 60173U 00001A   26130.17700231  .00000000  00000-0  00000-0 0  9991
2 60173  53.0000 225.0000 0000000   0.0000 298.1250 15.24308387    04
VNU-LEO-1114
1 60174U 00001A   26130.17700231  .00000000  00000-0  00000-0 0  9992
2 60174  53.0000 225.0000 0000000   0.0000 320.6250 15.24308387    06
VNU-LEO-1115
1 60175U 00001A   26130.17700231  .00000000  00000-0  00000-0 0  9993
2 60175  53.0000 225.0000 0000000   0.0000 343.1250 15.24308387    07
VNU-LEO-1116
1 60176U 00001A   26130.17700231  .00000000  00000-0  00000-0 0  9994
2 60176  53.0000 225.0000 0000000   0.0000   5.6250 15.24308387    08
VNU-LEO-1201
1 60177U 00001A   26130.17700231  .00000000  00000-0  00000-0 0  9995
2 60177  53.0000 247.5000 0000000   0.0000  30.9375 15.24308387    07
VNU-LEO-1202
1 60178U 00001A   26130.17700231  .00000000  00000-0  00000-0 0  9996
2 60178  53.0000 247.5000 0000000   0.0000  53.4375 15.24308387    08
VNU-LEO-1203
1 60179U 00001A   26130.17700231  .00000000  00000-0  00000-0 0  9997
2 60179  53.0000 247.5000 0000000   0.0000  75.9375 15.24308387    08
VNU-LEO-1204
1 60180U 00001A   26130.17700231  .00000000  00000-0  00000-0 0  9999
2 60180  53.0000 247.5000 0000000   0.0000  98.4375 15.24308387    00
VNU-LEO-1205
1 60181U 00001A   26130.17700231  .00000000  00000-0  00000-0 0  9990
2 60181  53.0000 247.5000 0000000   0.0000 120.9375 15.24308387    02
VNU-LEO-1206
1 60182U 00001A   26130.17700231  .00000000  00000-0  00000-0 0  9991
2 60182  53.0000 247.5000 0000000   0.0000 143.4375 15.24308387    03
VNU-LEO-1207
1 60183U 00001A   26130.17700231  .00000000  00000-0  00000-0 0  9992
2 60183  53.0000 247.5000 0000000   0.0000 165.9375 15.24308387    03
VNU-LEO-1208
1 60184U 00001A   26130.17700231  .00000000  00000-0  00000-0 0  9993
2 60184  53.0000 247.5000 0000000   0.0000 188.4375 15.24308387    04
VNU-LEO-1209
1 60185U 00001A   26130.17700231  .00000000  00000-0  00000-0 0  9994
2 60185  53.0000 247.5000 0000000   0.0000 210.9375 15.24308387    06
VNU-LEO-1210
1 60186U 00001A   26130.17700231  .00000000  00000-0  00000-0 0  9995
2 60186  53.0000 247.5000 0000000   0.0000 233.4375 15.24308387    07
VNU-LEO-1211
1 60187U 00001A   26130.17700231  .00000000  00000-0  00000-0 0  9996
2 60187  53.0000 247.5000 0000000   0.0000 255.9375 15.24308387    07
VNU-LEO-1212
1 60188U 00001A   26130.17700231  .00000000  00000-0  00000-0 0  9997
2 60188  53.0000 247.5000 0000000   0.0000 278.4375 15.24308387    08
VNU-LEO-1213
1 60189U 00001A   26130.17700231  .00000000  00000-0  00000-0 0  9998
2 60189  53.0000 247.5000 0000000   0.0000 300.9375 15.24308387    00
VNU-LEO-1214
1 60190U 00001A   26130.17700231  .00000000  00000-0  00000-0 0  9990
2 60190  53.0000 247.5000 0000000   0.0000 323.4375 15.24308387    02
VNU-LEO-1215
1 60191U 00001A   26130.17700231  .00000000  00000-0  00000-0 0  9991
2 60191  53.0000 247.5000 0000000   0.0000 345.9375 15.24308387    02
VNU-LEO-1216
1 60192U 00001A   26130.17700231  .00000000  00000-0  00000-0 0  9992
2 60192  53.0000 247.5000 0000000   0.0000   8.4375 15.24308387    04
VNU-LEO-1301
1 60193U 00001A   26130.17700231  .00000000  00000-0  00000-0 0  9993
2 60193  53.0000 270.0000 0000000   0.0000  33.7500 15.24308387    07
VNU-LEO-1302
1 60194U 00001A   26130.17700231  .00000000  00000-0  00000-0 0  9994
2 60194  53.0000 270.0000 0000000   0.0000  56.2500 15.24308387    08
VNU-LEO-1303
1 60195U 00001A   26130.17700231  .00000000  00000-0  00000-0 0  9995
2 60195  53.0000 270.0000 0000000   0.0000  78.7500 15.24308387    08
VNU-LEO-1304
1 60196U 00001A   26130.17700231  .00000000  00000-0  00000-0 0  9996
2 60196  53.0000 270.0000 0000000   0.0000 101.2500 15.24308387    01
VNU-LEO-1305
1 60197U 00001A   26130.17700231  .00000000  00000-0  00000-0 0  9997
2 60197  53.0000 270.0000 0000000   0.0000 123.7500 15.24308387    01
VNU-LEO-1306
1 60198U 00001A   26130.17700231  .00000000  00000-0  00000-0 0  9998
2 60198  53.0000 270.0000 0000000   0.0000 146.2500 15.24308387    02
VNU-LEO-1307
1 60199U 00001A   26130.17700231  .00000000  00000-0  00000-0 0  9999
2 60199  53.0000 270.0000 0000000   0.0000 168.7500 15.24308387    02
VNU-LEO-1308
1 60200U 00001A   26130.17700231  .00000000  00000-0  00000-0 0  9992
2 60200  53.0000 270.0000 0000000   0.0000 191.2500 15.24308387    06
VNU-LEO-1309
1 60201U 00001A   26130.17700231  .00000000  00000-0  00000-0 0  9993
2 60201  53.0000 270.0000 0000000   0.0000 213.7500 15.24308387    07
VNU-LEO-1310
1 60202U 00001A   26130.17700231  .00000000  00000-0  00000-0 0  9994
2 60202  53.0000 270.0000 0000000   0.0000 236.2500 15.24308387    08
VNU-LEO-1311
1 60203U 00001A   26130.17700231  .00000000  00000-0  00000-0 0  9995
2 60203  53.0000 270.0000 0000000   0.0000 258.7500 15.24308387    08
VNU-LEO-1312
1 60204U 00001A   26130.17700231  .00000000  00000-0  00000-0 0  9996
2 60204  53.0000 270.0000 0000000   0.0000 281.2500 15.24308387    00
VNU-LEO-1313
1 60205U 00001A   26130.17700231  .00000000  00000-0  00000-0 0  9997
2 60205  53.0000 270.0000 0000000   0.0000 303.7500 15.24308387    01
VNU-LEO-1314
1 60206U 00001A   26130.17700231  .00000000  00000-0  00000-0 0  9998
2 60206  53.0000 270.0000 0000000   0.0000 326.2500 15.24308387    02
VNU-LEO-1315
1 60207U 00001A   26130.17700231  .00000000  00000-0  00000-0 0  9999
2 60207  53.0000 270.0000 0000000   0.0000 348.7500 15.24308387    02
VNU-LEO-1316
1 60208U 00001A   26130.17700231  .00000000  00000-0  00000-0 0  9990
2 60208  53.0000 270.0000 0000000   0.0000  11.2500 15.24308387    05
VNU-LEO-1401
1 60209U 00001A   26130.17700231  .00000000  00000-0  00000-0 0  9991
2 60209  53.0000 292.5000 0000000   0.0000  36.5625 15.24308387    03
VNU-LEO-1402
1 60210U 00001A   26130.17700231  .00000000  00000-0  00000-0 0  9993
2 60210  53.0000 292.5000 0000000   0.0000  59.0625 15.24308387    05
VNU-LEO-1403
1 60211U 00001A   26130.17700231  .00000000  00000-0  00000-0 0  9994
2 60211  53.0000 292.5000 0000000   0.0000  81.5625 15.24308387    06
VNU-LEO-1404
1 60212U 00001A   26130.17700231  .00000000  00000-0  00000-0 0  9995
2 60212  53.0000 292.5000 0000000   0.0000 104.0625 15.24308387    08
VNU-LEO-1405
1 60213U 00001A   26130.17700231  .00000000  00000-0  00000-0 0  9996
2 60213  53.0000 292.5000 0000000   0.0000 126.5625 15.24308387    08
VNU-LEO-1406
1 60214U 00001A   26130.17700231  .00000000  00000-0  00000-0 0  9997
2 60214  53.0000 292.5000 0000000   0.0000 149.0625 15.24308387    09
VNU-LEO-1407
1 60215U 00001A   26130.17700231  .00000000  00000-0  00000-0 0  9998
2 60215  53.0000 292.5000 0000000   0.0000 171.5625 15.24308387    00
VNU-LEO-1408
1 60216U 00001A   26130.17700231  .00000000  00000-0  00000-0 0  9999
2 60216  53.0000 292.5000 0000000   0.0000 194.0625 15.24308387    01
VNU-LEO-1409
1 60217U 00001A   26130.17700231  .00000000  00000-0  00000-0 0  9990
2 60217  53.0000 292.5000 0000000   0.0000 216.5625 15.24308387    02
VNU-LEO-1410
1 60218U 00001A   26130.17700231  .00000000  00000-0  00000-0 0  9991
2 60218  53.0000 292.5000 0000000   0.0000 239.0625 15.24308387    03
VNU-LEO-1411
1 60219U 00001A   26130.17700231  .00000000  00000-0  00000-0 0  9992
2 60219  53.0000 292.5000 0000000   0.0000 261.5625 15.24308387    04
VNU-LEO-1412
1 60220U 00001A   26130.17700231  .00000000  00000-0  00000-0 0  9994
2 60220  53.0000 292.5000 0000000   0.0000 284.0625 15.24308387    06
VNU-LEO-1413
1 60221U 00001A   26130.17700231  .00000000  00000-0  00000-0 0  9995
2 60221  53.0000 292.5000 0000000   0.0000 306.5625 15.24308387    07
VNU-LEO-1414
1 60222U 00001A   26130.17700231  .00000000  00000-0  00000-0 0  9996
2 60222  53.0000 292.5000 0000000   0.0000 329.0625 15.24308387    08
VNU-LEO-1415
1 60223U 00001A   26130.17700231  .00000000  00000-0  00000-0 0  9997
2 60223  53.0000 292.5000 0000000   0.0000 351.5625 15.24308387    09
VNU-LEO-1416
1 60224U 00001A   26130.17700231  .00000000  00000-0  00000-0 0  9998
2 60224  53.0000 292.5000 0000000   0.0000  14.0625 15.24308387    01
VNU-LEO-1501
1 60225U 00001A   26130.17700231  .00000000  00000-0  00000-0 0  9999
2 60225  53.0000 315.0000 0000000   0.0000  39.3750 15.24308387    02
VNU-LEO-1502
1 60226U 00001A   26130.17700231  .00000000  00000-0  00000-0 0  9990
2 60226  53.0000 315.0000 0000000   0.0000  61.8750 15.24308387    03
VNU-LEO-1503
1 60227U 00001A   26130.17700231  .00000000  00000-0  00000-0 0  9991
2 60227  53.0000 315.0000 0000000   0.0000  84.3750 15.24308387    04
VNU-LEO-1504
1 60228U 00001A   26130.17700231  .00000000  00000-0  00000-0 0  9992
2 60228  53.0000 315.0000 0000000   0.0000 106.8750 15.24308387    05
VNU-LEO-1505
1 60229U 00001A   26130.17700231  .00000000  00000-0  00000-0 0  9993
2 60229  53.0000 315.0000 0000000   0.0000 129.3750 15.24308387    06
VNU-LEO-1506
1 60230U 00001A   26130.17700231  .00000000  00000-0  00000-0 0  9995
2 60230  53.0000 315.0000 0000000   0.0000 151.8750 15.24308387    08
VNU-LEO-1507
1 60231U 00001A   26130.17700231  .00000000  00000-0  00000-0 0  9996
2 60231  53.0000 315.0000 0000000   0.0000 174.3750 15.24308387    09
VNU-LEO-1508
1 60232U 00001A   26130.17700231  .00000000  00000-0  00000-0 0  9997
2 60232  53.0000 315.0000 0000000   0.0000 196.8750 15.24308387    09
VNU-LEO-1509
1 60233U 00001A   26130.17700231  .00000000  00000-0  00000-0 0  9998
2 60233  53.0000 315.0000 0000000   0.0000 219.3750 15.24308387    01
VNU-LEO-1510
1 60234U 00001A   26130.17700231  .00000000  00000-0  00000-0 0  9999
2 60234  53.0000 315.0000 0000000   0.0000 241.8750 15.24308387    02
VNU-LEO-1511
1 60235U 00001A   26130.17700231  .00000000  00000-0  00000-0 0  9990
2 60235  53.0000 315.0000 0000000   0.0000 264.3750 15.24308387    03
VNU-LEO-1512
1 60236U 00001A   26130.17700231  .00000000  00000-0  00000-0 0  9991
2 60236  53.0000 315.0000 0000000   0.0000 286.8750 15.24308387    03
VNU-LEO-1513
1 60237U 00001A   26130.17700231  .00000000  00000-0  00000-0 0  9992
2 60237  53.0000 315.0000 0000000   0.0000 309.3750 15.24308387    05
VNU-LEO-1514
1 60238U 00001A   26130.17700231  .00000000  00000-0  00000-0 0  9993
2 60238  53.0000 315.0000 0000000   0.0000 331.8750 15.24308387    06
VNU-LEO-1515
1 60239U 00001A   26130.17700231  .00000000  00000-0  00000-0 0  9994
2 60239  53.0000 315.0000 0000000   0.0000 354.3750 15.24308387    07
VNU-LEO-1516
1 60240U 00001A   26130.17700231  .00000000  00000-0  00000-0 0  9996
2 60240  53.0000 315.0000 0000000   0.0000  16.8750 15.24308387    09
VNU-LEO-1601
1 60241U 00001A   26130.17700231  .00000000  00000-0  00000-0 0  9997
2 60241  53.0000 337.5000 0000000   0.0000  42.1875 15.24308387    09
VNU-LEO-1602
1 60242U 00001A   26130.17700231  .00000000  00000-0  00000-0 0  9998
2 60242  53.0000 337.5000 0000000   0.0000  64.6875 15.24308387    09
VNU-LEO-1603
1 60243U 00001A   26130.17700231  .00000000  00000-0  00000-0 0  9999
2 60243  53.0000 337.5000 0000000   0.0000  87.1875 15.24308387    00
VNU-LEO-1604
1 60244U 00001A   26130.17700231  .00000000  00000-0  00000-0 0  9990
2 60244  53.0000 337.5000 0000000   0.0000 109.6875 15.24308387    01
VNU-LEO-1605
1 60245U 00001A   26130.17700231  .00000000  00000-0  00000-0 0  9991
2 60245  53.0000 337.5000 0000000   0.0000 132.1875 15.24308387    03
VNU-LEO-1606
1 60246U 00001A   26130.17700231  .00000000  00000-0  00000-0 0  9992
2 60246  53.0000 337.5000 0000000   0.0000 154.6875 15.24308387    03
VNU-LEO-1607
1 60247U 00001A   26130.17700231  .00000000  00000-0  00000-0 0  9993
2 60247  53.0000 337.5000 0000000   0.0000 177.1875 15.24308387    04
VNU-LEO-1608
1 60248U 00001A   26130.17700231  .00000000  00000-0  00000-0 0  9994
2 60248  53.0000 337.5000 0000000   0.0000 199.6875 15.24308387    04
VNU-LEO-1609
1 60249U 00001A   26130.17700231  .00000000  00000-0  00000-0 0  9995
2 60249  53.0000 337.5000 0000000   0.0000 222.1875 15.24308387    07
VNU-LEO-1610
1 60250U 00001A   26130.17700231  .00000000  00000-0  00000-0 0  9997
2 60250  53.0000 337.5000 0000000   0.0000 244.6875 15.24308387    08
VNU-LEO-1611
1 60251U 00001A   26130.17700231  .00000000  00000-0  00000-0 0  9998
2 60251  53.0000 337.5000 0000000   0.0000 267.1875 15.24308387    09
VNU-LEO-1612
1 60252U 00001A   26130.17700231  .00000000  00000-0  00000-0 0  9999
2 60252  53.0000 337.5000 0000000   0.0000 289.6875 15.24308387    09
VNU-LEO-1613
1 60253U 00001A   26130.17700231  .00000000  00000-0  00000-0 0  9990
2 60253  53.0000 337.5000 0000000   0.0000 312.1875 15.24308387    02
VNU-LEO-1614
1 60254U 00001A   26130.17700231  .00000000  00000-0  00000-0 0  9991
2 60254  53.0000 337.5000 0000000   0.0000 334.6875 15.24308387    02
VNU-LEO-1615
1 60255U 00001A   26130.17700231  .00000000  00000-0  00000-0 0  9992
2 60255  53.0000 337.5000 0000000   0.0000 357.1875 15.24308387    03
VNU-LEO-1616
1 60256U 00001A   26130.17700231  .00000000  00000-0  00000-0 0  9993
2 60256  53.0000 337.5000 0000000   0.0000  19.6875 15.24308387    04
