VNU-LEO-0101
1 60001U 00001A   26148.03633102  .00000000  00000-0  00000-0 0  9997
2 60001  53.0000   0.0000 0000000   0.0000   0.0000 13.71870588    05
VNU-LEO-0102
1 60002U 00001A   26148.03633102  .00000000  00000-0  00000-0 0  9998
2 60002  53.0000   0.0000 0000000   0.0000  32.7273 13.71870588    00
VNU-LEO-0103
1 60003U 00001A   26148.03633102  .00000000  00000-0  00000-0 0  9999
2 60003  53.0000   0.0000 0000000   0.0000  65.4545 13.71870588    06
VNU-LEO-0104
1 60004U 00001A   26148.03633102  .00000000  00000-0  00000-0 0  9990
2 60004  53.0000   0.0000 0000000   0.0000  98.1818 13.71870588    03
VNU-LEO-0105
1 60005U 00001A   26148.03633102  .00000000  00000-0  00000-0 0  9991
2 60005  53.0000   0.0000 0000000   0.0000 130.9091 13.71870588    02
VNU-LEO-0106
1 60006U 00001A   26148.03633102  .00000000  00000-0  00000-0 0  9992
2 60006  53.0000   0.0000 0000000   0.0000 163.6364 13.71870588    09
VNU-LEO-0107
1 60007U 00001A   26148.03633102  .00000000  00000-0  00000-0 0  9993
2 60007  53.0000   0.0000 0000000   0.0000 196.3636 13.71870588    05
VNU-LEO-0108
1 60008U 00001A   26148.03633102  .00000000  00000-0  00000-0 0  9994
2 60008  53.0000   0.0000 0000000   0.0000 229.0909 13.71870588    03
VNU-LEO-0109
1 60009U 00001A   26148.03633102  .00000000  00000-0  00000-0 0  9995
2 60009  53.0000   0.0000 0000000   0.0000 261.8182 13.71870588    01
VNU-LEO-0110
1 60010U 00001A   26148.03633102  .00000000  00000-0  00000-0 0  9997
2 60010  53.0000   0.0000 0000000   0.0000 294.5455 13.71870588    09
VNU-LEO-0111
1 60011U 00001A   26148.03633102  .00000000  00000-0  00000-0 0  9998
2 60011  53.0000   0.0000 0000000   0.0000 327.2727 13.71870588    06
VNU-LEO-0201
1 60012U 00001A   26148.03633102  .00000000  00000-0  00000-0 0  9999
2 60012  53.0000  36.0000 0000000   0.0000   0.0000 13.71870588    06
VNU-LEO-0202
1 60013U 00001A   26148.03633102  .00000000  00000-0  00000-0 0  9990
2 60013  53.0000  36.0000 0000000   0.0000  32.7273 13.71870588    01
VNU-LEO-0203
1 60014U 00001A   26148.03633102  .00000000  00000-0  00000-0 0  9991
2 60014  53.0000  36.0000 0000000   0.0000  65.4545 13.71870588    07
VNU-LEO-0204
1 60015U 00001A   26148.03633102  .00000000  00000-0  00000-0 0  9992
2 60015  53.0000  36.0000 0000000   0.0000  98.1818 13.71870588    04
VNU-LEO-0205
1 60016U 00001A   26148.03633102  .00000000  00000-0  00000-0 0  9993
2 60016  53.0000  36.0000 0000000   0.0000 130.9091 13.71870588    03
VNU-LEO-0206
1 60017U 00001A   26148.03633102  .00000000  00000-0  00000-0 0  9994
2 60017  53.0000  36.0000 0000000   0.0000 163.6364 13.71870588    00
VNU-LEO-0207
1 60018U 00001A   26148.03633102  .00000000  00000-0  00000-0 0  9995
2 60018  53.0000  36.0000 0000000   0.0000 196.3636 13.71870588    06
VNU-LEO-0208
1 60019U 00001A   26148.03633102  .00000000  00000-0  00000-0 0  9996
2 60019  53.0000  36.0000 0000000   0.0000 229.0909 13.71870588    04
VNU-LEO-0209
1 60020U 00001A   26148.03633102  .00000000  00000-0  00000-0 0  9998
2 60020  53.0000  36.0000 0000000   0.0000 261.8182 13.71870588    03
VNU-LEO-0210
1 60021U 00001A   26148.03633102  .00000000  00000-0  00000-0 0  9999
2 60021  53.0000  36.0000 0000000   0.0000 294.5455 13.71870588    00
VNU-LEO-0211
1 60022U 00001A   26148.03633102  .00000000  00000-0  00000-0 0  9990
2 60022  53.0000  36.0000 0000000   0.0000 327.2727 13.71870588    07
VNU-LEO-0301
1 60023U 00001A   26148.03633102  .00000000  00000-0  00000-0 0  9991
2 60023  53.0000  72.0000 0000000   0.0000   0.0000 13.71870588    08
VNU-LEO-0302
1 60024U 00001A   26148.03633102  .00000000  00000-0  00000-0 0  9992
2 60024  53.0000  72.0000 0000000   0.0000  32.7273 13.71870588    03
VNU-LEO-0303
1 60025U 00001A   26148.03633102  .00000000  00000-0  00000-0 0  9993
2 60025  53.0000  72.0000 0000000   0.0000  65.4545 13.71870588    09
VNU-LEO-0304
1 60026U 00001A   26148.03633102  .00000000  00000-0  00000-0 0  9994
2 60026  53.0000  72.0000 0000000   0.0000  98.1818 13.71870588    06
VNU-LEO-0305
1 60027U 00001A   26148.03633102  .00000000  00000-0  00000-0 0  9995
2 60027  53.0000  72.0000 0000000   0.0000 130.9091 13.71870588    05
VNU-LEO-0306
1 60028U 00001A   26148.03633102  .00000000  00000-0  00000-0 0  9996
2 60028  53.0000  72.0000 0000000   0.0000 163.6364 13.71870588    02
VNU-LEO-0307
1 60029U 00001A   26148.03633102  .00000000  00000-0  00000-0 0  9997
2 60029  53.0000  72.0000 0000000   0.0000 196.3636 13.71870588    08
VNU-LEO-0308
1 60030U 00001A   26148.03633102  .00000000  00000-0  00000-0 0  9999
2 60030  53.0000  72.0000 0000000   0.0000 229.0909 13.71870588    07
VNU-LEO-0309
1 60031U 00001A   26148.03633102  .00000000  00000-0  00000-0 0  9990
2 60031  53.0000  72.0000 0000000   0.0000 261.8182 13.71870588    05
VNU-LEO-0310
1 60032U 00001A   26148.03633102  .00000000  00000-0  00000-0 0  9991
2 60032  53.0000  72.0000 0000000   0.0000 294.5455 13.71870588    02
VNU-LEO-0311
1 60033U 00001A   26148.03633102  .00000000  00000-0  00000-0 0  9992
2 60033  53.0000  72.0000 0000000   0.0000 327.2727 13.71870588    09
VNU-LEO-0401
1 60034U 00001A   26148.03633102  .00000000  00000-0  00000-0 0  9993
2 60034  53.0000 108.0000 0000000   0.0000   0.0000 13.71870588    00
VNU-LEO-0402
1 60035U 00001A   26148.03633102  .00000000  00000-0  00000-0 0  9994
2 60035  53.0000 108.0000 0000000   0.0000  32.7273 13.71870588    05
VNU-LEO-0403
1 60036U 00001A   26148.03633102  .00000000  00000-0  00000-0 0  9995
2 60036  53.0000 108.0000 0000000   0.0000  65.4545 13.71870588    01
VNU-LEO-0404
1 60037U 00001A   26148.03633102  .00000000  00000-0  00000-0 0  9996
2 60037  53.0000 108.0000 0000000   0.0000  98.1818 13.71870588    08
VNU-LEO-0405
1 60038U 00001A   26148.03633102  .00000000  00000-0  00000-0 0  9997
2 60038  53.0000 108.0000 0000000   0.0000 130.9091 13.71870588    07
VNU-LEO-0406
1 60039U 00001A   26148.03633102  .00000000  00000-0  00000-0 0  9998
2 60039  53.0000 108.0000 0000000   0.0000 163.6364 13.71870588    04
VNU-LEO-0407
1 60040U 00001A   26148.03633102  .00000000  00000-0  00000-0 0  9990
2 60040  53.0000 108.0000 0000000   0.0000 196.3636 13.71870588    01
VNU-LEO-0408
1 60041U 00001A   26148.03633102  .00000000  00000-0  00000-0 0  9991
2 60041  53.0000 108.0000 0000000   0.0000 229.0909 13.71870588    09
VNU-LEO-0409
1 60042U 00001A   26148.03633102  .00000000  00000-0  00000-0 0  9992
2 60042  53.0000 108.0000 0000000   0.0000 261.8182 13.71870588    07
VNU-LEO-0410
1 60043U 00001A   26148.03633102  .00000000  00000-0  00000-0 0  9993
2 60043  53.0000 108.0000 0000000   0.0000 294.5455 13.71870588    04
VNU-LEO-0411
1 60044U 00001A   26148.03633102  .00000000  00000-0  00000-0 0  9994
2 60044  53.0000 108.0000 0000000   0.0000 327.2727 13.71870588    01
VNU-LEO-0501
1 60045U 00001A   26148.03633102  .00000000  00000-0  00000-0 0  9995
2 60045  53.0000 144.0000 0000000   0.0000   0.0000 13.71870588    02
VNU-LEO-0502
1 60046U 00001A   26148.03633102  .00000000  00000-0  00000-0 0  9996
2 60046  53.0000 144.0000 0000000   0.0000  32.7273 13.71870588    07
VNU-LEO-0503
1 60047U 00001A   26148.03633102  .00000000  00000-0  00000-0 0  9997
2 60047  53.0000 144.0000 0000000   0.0000  65.4545 13.71870588    03
VNU-LEO-0504
1 60048U 00001A   26148.03633102  .00000000  00000-0  00000-0 0  9998
2 60048  53.0000 144.0000 0000000   0.0000  98.1818 13.71870588    00
VNU-LEO-0505
1 60049U 00001A   26148.03633102  .00000000  00000-0  00000-0 0  9999
2 60049  53.0000 144.0000 0000000   0.0000 130.9091 13.71870588    09
VNU-LEO-0506
1 60050U 00001A   26148.03633102  .00000000  00000-0  00000-0 0  9991
2 60050  53.0000 144.0000 0000000   0.0000 163.6364 13.71870588    07
VNU-LEO-0507
1 60051U 00001A   26148.03633102  .00000000  00000-0  00000-0 0  9992
2 60051  53.0000 144.0000 0000000   0.0000 196.3636 13.71870588    03
VNU-LEO-0508
1 60052U 00001A   26148.03633102  .00000000  00000-0  00000-0 0  9993
2 60052  53.0000 144.0000 0000000   0.0000 229.0909 13.71870588    01
VNU-LEO-0509
1 60053U 00001A   26148.03633102  .00000000  00000-0  00000-0 0  9994
2 60053  53.0000 144.0000 0000000   0.0000 261.8182 13.71870588    09
VNU-LEO-0510
1 60054U 00001A   26148.03633102  .00000000  00000-0  00000-0 0  9995
2 60054  53.0000 144.0000 0000000   0.0000 294.5455 13.71870588    06
VNU-LEO-0511
1 60055U 00001A   26148.03633102  .00000000  00000-0  00000-0 0  9996
2 60055  53.0000 144.0000 0000000   0.0000 327.2727 13.71870588    03
VNU-LEO-0601
1 60056U 00001A   26148.03633102  .00000000  00000-0  00000-0 0  9997
2 60056  53.0000 180.0000 0000000   0.0000   0.0000 13.71870588    04
VNU-LEO-0602
1 60057U 00001A   26148.03633102  .00000000  00000-0  00000-0 0  9998
2 60057  53.0000 180.0000 0000000   0.0000  32.7273 13.71870588    09
VNU-LEO-0603
1 60058U 00001A   26148.03633102  .00000000  00000-0  00000-0 0  9999
2 60058  53.0000 180.0000 0000000   0.0000  65.4545 13.71870588    05
VNU-LEO-0604
1 60059U 00001A   26148.03633102  .00000000  00000-0  00000-0 0  9990
2 60059  53.0000 180.0000 0000000   0.0000  98.1818 13.71870588    02
VNU-LEO-0605
1 60060U 00001A   26148.03633102  .00000000  00000-0  00000-0 0  9992
2 60060  53.0000 180.0000 0000000   0.0000 130.9091 13.71870588    02
VNU-LEO-0606
1 60061U 00001A   26148.03633102  .00000000  00000-0  00000-0 0  9993
2 60061  53.0000 180.0000 0000000   0.0000 163.6364 13.71870588    09
VNU-LEO-0607
1 60062U 00001A   26148.03633102  .00000000  00000-0  00000-0 0  9994
2 60062  53.0000 180.0000 0000000   0.0000 196.3636 13.71870588    05
VNU-LEO-0608
1 60063U 00001A   26148.03633102  .00000000  00000-0  00000-0 0  9995
2 60063  53.0000 180.0000 0000000   0.0000 229.0909 13.71870588    03
VNU-LEO-0609
1 60064U 00001A   26148.03633102  .00000000  00000-0  00000-0 0  9996
2 60064  53.0000 180.0000 0000000   0.0000 261.8182 13.71870588    01
VNU-LEO-0610
1 60065U 00001A   26148.03633102  .00000000  00000-0  00000-0 0  9997
2 60065  53.0000 180.0000 0000000   0.0000 294.5455 13.71870588    08
VNU-LEO-0611
1 60066U 00001A   26148.03633102  .00000000  00000-0  00000-0 0  9998
2 60066  53.0000 180.0000 0000000   0.0000 327.2727 13.71870588    05
VNU-LEO-0701
1 60067U 00001A   26148.03633102  .00000000  00000-0  00000-0 0  9999
2 60067  53.0000 216.0000 0000000   0.0000   0.0000 13.71870588    06
VNU-LEO-0702
1 60068U 00001A   26148.03633102  .00000000  00000-0  00000-0 0  9990
2 60068  53.0000 216.0000 0000000   0.0000  32.7273 13.71870588    01
VNU-LEO-0703
1 60069U 00001A   26148.03633102  .00000000  00000-0  00000-0 0  9991
2 60069  53.0000 216.0000 0000000   0.0000  65.4545 13.71870588    07
VNU-LEO-0704
1 60070U 00001A   26148.03633102  .00000000  00000-0  00000-0 0  9993
2 60070  53.0000 216.0000 0000000   0.0000  98.1818 13.71870588    05
VNU-LEO-0705
1 60071U 00001A   26148.03633102  .00000000  00000-0  00000-0 0  9994
2 60071  53.0000 216.0000 0000000   0.0000 130.9091 13.71870588    04
VNU-LEO-0706
1 60072U 00001A   26148.03633102  .00000000  00000-0  00000-0 0  9995
2 60072  53.0000 216.0000 0000000   0.0000 163.6364 13.71870588    01
VNU-LEO-0707
1 60073U 00001A   26148.03633102  .00000000  00000-0  00000-0 0  9996
2 60073  53.0000 216.0000 0000000   0.0000 196.3636 13.71870588    07
VNU-LEO-0708
1 60074U 00001A   26148.03633102  .00000000  00000-0  00000-0 0  9997
2 60074  53.0000 216.0000 0000000   0.0000 229.0909 13.71870588    05
VNU-LEO-0709
1 60075U 00001A   26148.03633102  .00000000  00000-0  00000-0 0  9998
2 60075  53.0000 216.0000 0000000   0.0000 261.8182 13.71870588    03
VNU-LEO-0710
1 60076U 00001A   26148.03633102  .00000000  00000-0  00000-0 0  9999
2 60076  53.0000 216.0000 0000000   0.0000 294.5455 13.71870588    00
VNU-LEO-0711
1 60077U 00001A   26148.03633102  .00000000  00000-0  00000-0 0  9990
2 60077  53.0000 216.0000 0000000   0.0000 327.2727 13.71870588    07
VNU-LEO-0801
1 60078U 00001A   26148.03633102  .00000000  00000-0  00000-0 0  9991
2 60078  53.0000 252.0000 0000000   0.0000   0.0000 13.71870588    08
VNU-LEO-0802
1 60079U 00001A   26148.03633102  .00000000  00000-0  00000-0 0  9992
2 60079  53.0000 252.0000 0000000   0.0000  32.7273 13.71870588    03
VNU-LEO-0803
1 60080U 00001A   26148.03633102  .00000000  00000-0  00000-0 0  9994
2 60080  53.0000 252.0000 0000000   0.0000  65.4545 13.71870588    00
VNU-LEO-0804
1 60081U 00001A   26148.03633102  .00000000  00000-0  00000-0 0  9995
2 60081  53.0000 252.0000 0000000   0.0000  98.1818 13.71870588    07
VNU-LEO-0805
1 60082U 00001A   26148.03633102  .00000000  00000-0  00000-0 0  9996
2 60082  53.0000 252.0000 0000000   0.0000 130.9091 13.71870588    06
VNU-LEO-0806
1 60083U 00001A   26148.03633102  .00000000  00000-0  00000-0 0  9997
2 60083  53.0000 252.0000 0000000   0.0000 163.6364 13.71870588    03
VNU-LEO-0807
1 60084U 00001A   26148.03633102  .00000000  00000-0  00000-0 0  9998
2 60084  53.0000 252.0000 0000000   0.0000 196.3636 13.71870588    09
VNU-LEO-0808
1 60085U 00001A   26148.03633102  .00000000  00000-0  00000-0 0  9999
2 60085  53.0000 252.0000 0000000   0.0000 229.0909 13.71870588    07
VNU-LEO-0809
1 60086U 00001A   26148.03633102  .00000000  00000-0  00000-0 0  9990
2 60086  53.0000 252.0000 0000000   0.0000 261.8182 13.71870588    05
VNU-LEO-0810
1 60087U 00001A   26148.03633102  .00000000  00000-0  00000-0 0  9991
2 60087  53.0000 252.0000 0000000   0.0000 294.5455 13.71870588    02
VNU-LEO-0811
1 60088U 00001A   26148.03633102  .00000000  00000-0  00000-0 0  9992
2 60088  53.0000 252.0000 0000000   0.0000 327.2727 13.71870588    09
VNU-LEO-0901
1 60089U 00001A   26148.03633102  .00000000  00000-0  00000-0 0  9993
2 60089  53.0000 288.0000 0000000   0.0000   0.0000 13.71870588    09
VNU-LEO-0902
1 60090U 00001A   26148.03633102  .00000000  00000-0  00000-0 0  9995
2 60090  53.0000 288.0000 0000000   0.0000  32.7273 13.71870588    05
VNU-LEO-0903
1 60091U 00001A   26148.03633102  .00000000  00000-0  00000-0 0  9996
2 60091  53.0000 288.0000 0000000   0.0000  65.4545 13.71870588    01
VNU-LEO-0904
1 60092U 00001A   26148.03633102  .00000000  00000-0  00000-0 0  9997
2 60092  53.0000 288.0000 0000000   0.0000  98.1818 13.71870588    08
VNU-LEO-0905
1 60093U 00001A   26148.03633102  .00000000  00000-0  00000-0 0  9998
2 60093  53.0000 288.0000 0000000   0.0000 130.9091 13.71870588    07
VNU-LEO-0906
1 60094U 00001A   26148.03633102  .00000000  00000-0  00000-0 0  9999
2 60094  53.0000 288.0000 0000000   0.0000 163.6364 13.71870588    04
VNU-LEO-0907
1 60095U 00001A   26148.03633102  .00000000  00000-0  00000-0 0  9990
2 60095  53.0000 288.0000 0000000   0.0000 196.3636 13.71870588    00
VNU-LEO-0908
1 60096U 00001A   26148.03633102  .00000000  00000-0  00000-0 0  9991
2 60096  53.0000 288.0000 0000000   0.0000 229.0909 13.71870588    08
VNU-LEO-0909
1 60097U 00001A   26148.03633102  .00000000  00000-0  00000-0 0  9992
2 60097  53.0000 288.0000 0000000   0.0000 261.8182 13.71870588    06
VNU-LEO-0910
1 60098U 00001A   26148.03633102  .00000000  00000-0  00000-0 0  9993
2 60098  53.0000 288.0000 0000000   0.0000 294.5455 13.71870588    03
VNU-LEO-0911
1 60099U 00001A   26148.03633102  .00000000  00000-0  00000-0 0  9994
2 60099  53.0000 288.0000 0000000   0.0000 327.2727 13.71870588    00
VNU-LEO-1001
1 60100U 00001A   26148.03633102  .00000000  00000-0  00000-0 0  9997
2 60100  53.0000 324.0000 0000000   0.0000   0.0000 13.71870588    04
VNU-LEO-1002
1 60101U 00001A   26148.03633102  .00000000  00000-0  00000-0 0  9998
2 60101  53.0000 324.0000 0000000   0.0000  32.7273 13.71870588    09
VNU-LEO-1003
1 60102U 00001A   26148.03633102  .00000000  00000-0  00000-0 0  9999
2 60102  53.0000 324.0000 0000000   0.0000  65.4545 13.71870588    05
VNU-LEO-1004
1 60103U 00001A   26148.03633102  .00000000  00000-0  00000-0 0  9990
2 60103  53.0000 324.0000 0000000   0.0000  98.1818 13.71870588    02
VNU-LEO-1005
1 60104U 00001A   26148.03633102  .00000000  00000-0  00000-0 0  9991
2 60104  53.0000 324.0000 0000000   0.0000 130.9091 13.71870588    01
VNU-LEO-1006
1 60105U 00001A   26148.03633102  .00000000  00000-0  00000-0 0  9992
2 60105  53.0000 324.0000 0000000   0.0000 163.6364 13.71870588    08
VNU-LEO-1007
1 60106U 00001A   26148.03633102  .00000000  00000-0  00000-0 0  9993
2 60106  53.0000 324.0000 0000000   0.0000 196.3636 13.71870588    04
VNU-LEO-1008
1 60107U 00001A   26148.03633102  .00000000  00000-0  00000-0 0  9994
2 60107  53.0000 324.0000 0000000   0.0000 229.0909 13.71870588    02
VNU-LEO-1009
1 60108U 00001A   26148.03633102  .00000000  00000-0  00000-0 0  9995
2 60108  53.0000 324.0000 0000000   0.0000 261.8182 13.71870588    00
VNU-LEO-1010
1 60109U 00001A   26148.03633102  .00000000  00000-0  00000-0 0  9996
2 60109  53.0000 324.0000 0000000   0.0000 294.5455 13.71870588    07
VNU-LEO-1011
1 60110U 00001A   26148.03633102  .00000000  00000-0  00000-0 0  9998
2 60110  53.0000 324.0000 0000000   0.0000 327.2727 13.71870588    05
