VNU-LEO-0101
1 60001U 00001A   26130.17961806  .00000000  00000-0  00000-0 0  9998
2 60001  53.0000   0.0000 0000000   0.0000   0.0000 15.24308387    08
VNU-LEO-0102
1 60002U 00001A   26130.17961806  .00000000  00000-0  00000-0 0  9999
2 60002  53.0000   0.0000 0000000   0.0000  90.0000 15.24308387    08
VNU-LEO-0103
1 60003U 00001A   26130.17961806  .00000000  00000-0  00000-0 0  9990
2 60003  53.0000   0.0000 0000000   0.0000 180.0000 15.24308387    09
VNU-LEO-0104
1 60004U 00001A   26130.17961806  .00000000  00000-0  00000-0 0  9991
2 60004  53.0000   0.0000 0000000   0.0000 270.0000 15.24308387    00
VNU-LEO-0201
1 60005U 00001A   26130.17961806  .00000000  00000-0  00000-0 0  9992
2 60005  53.0000  60.0000 0000000   0.0000  15.0000 15.24308387    04
VNU-LEO-0202
1 60006U 00001A   26130.17961806  .00000000  00000-0  00000-0 0  9993
2 60006  53.0000  60.0000 0000000   0.0000 105.0000 15.24308387    05
VNU-LEO-0203
1 60007U 00001A   26130.17961806  .00000000  00000-0  00000-0 0  9994
2 60007  53.0000  60.0000 0000000   0.0000 195.0000 15.24308387    05
VNU-LEO-0204
1 60008U 00001A   26130.17961806  .00000000  00000-0  00000-0 0  9995
2 60008  53.0000  60.0000 0000000   0.0000 285.0000 15.24308387    06
VNU-LEO-0301
1 60009U 00001A   26130.17961806  .00000000  00000-0  00000-0 0  9996
2 60009  53.0000 120.0000 0000000   0.0000  30.0000 15.24308387    02
VNU-LEO-0302
1 60010U 00001A   26130.17961806  .00000000  00000-0  00000-0 0  9998
2 60010  53.0000 120.0000 0000000   0.0000 120.0000 15.24308387    04
VNU-LEO-0303
1 60011U 00001A   26130.17961806  .00000000  00000-0  00000-0 0  9999
2 60011  53.0000 120.0000 0000000   0.0000 210.0000 15.24308387    05
VNU-LEO-0304
1 60012U 00001A   26130.17961806  .00000000  00000-0  00000-0 0  9990
2 60012  53.0000 120.0000 0000000   0.0000 300.0000 15.24308387    06
VNU-LEO-0401
1 60013U 00001A   26130.17961806  .00000000  00000-0  00000-0 0  9991
2 60013  53.0000 180.0000 0000000   0.0000  45.0000 15.24308387    09
VNU-LEO-0402
1 60014U 00001A   26130.17961806  .00000000  00000-0  00000-0 0  9992
2 60014  53.0000 180.0000 0000000   0.0000 135.0000 15.24308387    00
VNU-LEO-0403
1 60015U 00001A   26130.17961806  .00000000  00000-0  00000-0 0  9993
2 60015  53.0000 180.0000 0000000   0.0000 225.0000 15.24308387    01
VNU-LEO-0404
1 60016U 00001A   26130.17961806  .00000000  00000-0  00000-0 0  9994
2 60016  53.0000 180.0000 0000000   0.0000 315.0000 15.24308387    02
VNU-LEO-0501
1 60017U 00001A   26130.17961806  .00000000  00000-0  00000-0 0  9995
2 60017  53.0000 240.0000 0000000   0.0000  60.0000 15.24308387    07
VNU-LEO-0502
1 60018U 00001A   26130.17961806  .00000000  00000-0  00000-0 0  9996
2 60018  53.0000 240.0000 0000000   0.0000 150.0000 15.24308387    08
VNU-LEO-0503
1 60019U 00001A   26130.17961806  .00000000  00000-0  00000-0 0  9997
2 60019  53.0000 240.0000 0000000   0.0000 240.0000 15.24308387    09
VNU-LEO-0504
1 60020U 00001A   26130.17961806  .00000000  00000-0  00000-0 0  9999
2 60020  53.0000 240.0000 0000000   0.0000 330.0000 15.24308387    01
VNU-LEO-0601
1 60021U 00001A   26130.17961806  .00000000  00000-0  00000-0 0  9990
2 60021  53.0000 300.0000 0000000   0.0000  75.0000 15.24308387    05
VNU-LEO-0602
1 60022U 00001A   26130.17961806  .00000000  00000-0  00000-0 0  9991
2 60022  53.0000 300.0000 0000000   0.0000 165.0000 15.24308387    06
VNU-LEO-0603
1 60023U 00001A   26130.17961806  .00000000  00000-0  00000-0 0  9992
2 60023  53.0000 300.0000 0000000   0.0000 255.0000 15.24308387    07
VNU-LEO-0604
1 60024U 00001A   26130.17961806  .00000000  00000-0  00000-0 0  9993
2 60024  53.0000 300.0000 0000000   0.0000 345.0000 15.24308387    08
